NORAD_CAT_ID,OBJECT_NAME,OBJECT_TYPE,EPOCH,MEAN_MOTION,ECCENTRICITY,INCLINATION,RA_OF_ASC_NODE,ARG_OF_PERICENTER,MEAN_ANOMALY,BSTAR,MEAN_MOTION_DOT,MEAN_MOTION_DDOT,TLE_LINE0,TLE_LINE1,TLE_LINE2,SEMIMAJOR_AXIS,PERIOD,APOGEE,PERIGEE,DECAYED
53897.0,STARLINK-5035,PAYLOAD,2022-11-22 14:00:01,15.30821611,0.0001197,53.2159,325.752,74.1178,33.2598,-0.043818,-0.01216646,0.0,0 STARLINK-5035,1 53897U 22119M   22326.58335648 -.01216646  00000-0 -43818-1 0  9997,2 53897  53.2159 325.7520 0001197  74.1178  33.2598 15.30821611  1301,6851.496999999999,94.067,474.182,472.542,0.0
53897.0,STARLINK-5035,PAYLOAD,2022-11-22 22:00:00,15.2996614,0.0001368,53.2164,324.2039,82.7005,62.0893,-0.042784,-0.01145966,0.0,0 STARLINK-5035,1 53897U 22119M   22326.91667824 -.01145966  00000-0 -42784-1 0  9995,2 53897  53.2164 324.2039 0001368  82.7005  62.0893 15.29966140  1303,6854.05,94.12,476.853,474.978,0.0
53897.0,STARLINK-5035,PAYLOAD,2022-11-23 06:00:00,15.29153568,0.0001393,53.2166,322.6602,97.3168,83.947,-0.043895,-0.01146394,0.0,0 STARLINK-5035,1 53897U 22119M   22327.25001157 -.01146394  00000-0 -43895-1 0  9994,2 53897  53.2166 322.6602 0001393  97.3168  83.9470 15.29153568  9722,6856.478,94.17,479.298,477.388,0.0
53897.0,STARLINK-5035,PAYLOAD,2022-11-23 14:00:01,15.28298725,0.0001257,53.216,321.1175,102.4466,114.3361,-0.042745,-0.0109219,0.0,0 STARLINK-5035,1 53897U 22119M   22327.58334491 -.01092190  00000-0 -42745-1 0  9997,2 53897  53.2160 321.1175 0001257 102.4466 114.3361 15.28298725  1301,6859.035,94.222,481.762,480.038,0.0
53897.0,STARLINK-5035,PAYLOAD,2022-11-23 22:00:00,15.27380275,0.0001211,53.2163,319.575,71.3595,179.9959,-0.037757,-0.00949169,0.0,0 STARLINK-5035,1 53897U 22119M   22327.91667824 -.00949169  00000-0 -37757-1 0  9996,2 53897  53.2163 319.5750 0001211  71.3595 179.9959 15.27380275  1302,6861.784000000002,94.279,484.48,482.818,0.0
53897.0,STARLINK-5035,PAYLOAD,2022-11-24 06:00:02,15.26601521,0.0001305,53.2164,318.0374,95.7278,189.2138,-0.040695,-0.00995181,0.0,0 STARLINK-5035,1 53897U 22119M   22328.25002315 -.00995181  00000-0 -40695-1 0  9992,2 53897  53.2164 318.0374 0001305  95.7278 189.2138 15.26601521  9873,6864.118,94.327,486.878,485.087,0.0
53897.0,STARLINK-5035,PAYLOAD,2022-11-24 14:00:01,15.25852818,0.0001118,53.2162,316.5002,79.2562,238.1531,-0.04562,-0.01082517,0.0,0 STARLINK-5035,1 53897U 22119M   22328.58334491 -.01082517  00000-0 -45620-1 0  9995,2 53897  53.2162 316.5002 0001118  79.2562 238.1531 15.25852818  9920,6866.363,94.373,488.995,487.46,0.0
53897.0,STARLINK-5035,PAYLOAD,2022-11-24 22:00:00,15.25012908,0.0001147,53.2164,314.9637,61.4618,287.5473,-0.045094,-0.01046363,0.0,0 STARLINK-5035,1 53897U 22119M   22328.91667824 -.01046363  00000-0 -45094-1 0  9995,2 53897  53.2164 314.9637 0001147  61.4618 287.5473 15.25012908  1300,6868.884,94.425,491.537,489.961,0.0
53897.0,STARLINK-5035,PAYLOAD,2022-11-25 06:00:00,15.2422861,0.0001262,53.2166,313.4319,75.2013,304.4016,-0.048154,-0.01087524,0.0,0 STARLINK-5035,1 53897U 22119M   22329.25001157 -.01087524  00000-0 -48154-1 0  9998,2 53897  53.2166 313.4319 0001262  75.2013 304.4016 15.24228610 10033,6871.24,94.474,493.972,492.23800000000006,0.0
53897.0,STARLINK-5035,PAYLOAD,2022-11-25 14:00:01,15.23419502,0.0001273,53.2161,311.9002,69.4033,339.8284,-0.049645,-0.01093752,0.0,0 STARLINK-5035,1 53897U 22119M   22329.58334491 -.01093752  00000-0 -49645-1 0  9990,2 53897  53.2161 311.9002 0001273  69.4033 339.8284 15.23419502  1309,6873.672,94.524,496.412,494.662,0.0
53897.0,STARLINK-5035,PAYLOAD,2022-11-25 20:00:01,15.22732156,0.0001155,53.2164,310.7518,58.0575,282.7994,-0.045787,-0.00996416,0.0,0 STARLINK-5035,1 53897U 22119M   22329.83334491 -.00996416  00000-0 -45787-1 0  9999,2 53897  53.2164 310.7518 0001155  58.0575 282.7994 15.22732156 10121,6875.741,94.567,498.4,496.812,0.0
53897.0,STARLINK-5035,PAYLOAD,2022-11-25 22:00:00,15.2260277,0.0001341999999999,53.2166,310.3694,57.0471,20.839,-0.050601,-0.01088476,0.0,0 STARLINK-5035,1 53897U 22119M   22329.91667824 -.01088476  00000-0 -50601-1 0  9997,2 53897  53.2166 310.3694 0001342  57.0471  20.8390 15.22602770  1305,6876.13,94.575,498.918,497.073,0.0
53897.0,STARLINK-5035,PAYLOAD,2022-11-26 06:00:00,15.21738042,0.0001383,53.2167,308.8435,78.4427,27.1438,-0.04844,-0.01021381,0.0,0 STARLINK-5035,1 53897U 22119M   22330.25001157 -.01021381  00000-0 -48440-1 0  9997,2 53897  53.2167 308.8435 0001383  78.4427  27.1438 15.21738042 10184,6878.735,94.629,501.551,499.649,0.0
53897.0,STARLINK-5035,PAYLOAD,2022-11-26 12:00:00,15.21113523,0.0001247,53.2161,307.6991,68.0106,327.6974,-0.048297,-0.01001412,0.0,0 STARLINK-5035,1 53897U 22119M   22330.50001157 -.01001412  00000-0 -48297-1 0  9998,2 53897  53.2161 307.6991 0001247  68.0106 327.6974 15.21113523 10229,6880.618,94.667,503.341,501.625,0.0
53897.0,STARLINK-5035,PAYLOAD,2022-11-26 14:00:01,15.20998541,0.0001419,53.2166,307.3174,70.7832,61.463,-0.05474,-0.01134732,0.0,0 STARLINK-5035,1 53897U 22119M   22330.58334491 -.01134732  00000-0 -54740-1 0  9998,2 53897  53.2166 307.3174 0001419  70.7832  61.4630 15.20998541  1302,6880.964,94.675,503.806,501.853,0.0
53897.0,STARLINK-5035,PAYLOAD,2022-11-26 22:00:00,15.20177008,0.0001402,53.2166,305.7925,69.5853,88.3843,-0.055478,-0.01123495,0.0,0 STARLINK-5035,1 53897U 22119M   22330.91667824 -.01123495  00000-0 -55478-1 0  9997,2 53897  53.2166 305.7925 0001402  69.5853  88.3843 15.20177008 10287,6883.443,94.726,506.273,504.343,0.0
53897.0,STARLINK-5035,PAYLOAD,2022-11-27 14:00:01,15.18522918,0.0001431999999999,53.2164,302.7517,81.5766,124.9119,-0.056273,-0.01088626,0.0,0 STARLINK-5035,1 53897U 22119M   22331.58334491 -.01088626  00000-0 -56273-1 0  9992,2 53897  53.2164 302.7517 0001432  81.5766 124.9119 15.18522918  1306,6888.441,94.829,511.292,509.32,0.0
53897.0,STARLINK-5035,PAYLOAD,2022-11-27 22:00:00,15.17724261,0.0001464,53.2165,301.2327,92.1951,137.0712,-0.058683,-0.01107753,0.0,0 STARLINK-5035,1 53897U 22119M   22331.91667824 -.01107753  00000-0 -58683-1 0  9998,2 53897  53.2165 301.2327 0001464  92.1951 137.0712 15.17724261  1307,6890.857,94.879,513.731,511.713,0.0
53897.0,STARLINK-5035,PAYLOAD,2022-11-28 06:00:00,15.16937843,0.0001495,53.217,299.7183,112.7067,138.3534,-0.062299,-0.01146421,0.0,0 STARLINK-5035,1 53897U 22119M   22332.25001157 -.01146421  00000-0 -62299-1 0  9990,2 53897  53.2170 299.7183 0001495 112.7067 138.3534 15.16937843 10481,6893.239000000001,94.928,516.134,514.073,0.0
53897.0,STARLINK-5035,PAYLOAD,2022-11-28 22:00:01,15.15343824,0.0001334,53.2166,296.6899,95.2861,196.5028,-0.06794,-0.01190522,0.0,0 STARLINK-5035,1 53897U 22119M   22332.91668981 -.01190522  00000-0 -67940-1 0  9996,2 53897  53.2166 296.6899 0001334  95.2861 196.5028 15.15343824  1309,6898.071999999999,95.028,520.857,519.0169999999998,0.0
53897.0,STARLINK-5035,PAYLOAD,2022-11-29 06:00:00,15.14509914,0.0001371,53.2169,295.1814,108.9461,201.6636,-0.067934,-0.01164682,0.0,0 STARLINK-5035,1 53897U 22119M   22333.25001157 -.01164682  00000-0 -67934-1 0  9991,2 53897  53.2169 295.1814 0001371 108.9461 201.6636 15.14509914 10634,6900.604,95.08,523.415,521.523,0.0
53897.0,STARLINK-5035,PAYLOAD,2022-11-29 14:00:01,15.13684799,0.0001239,53.217,293.6717,97.2981,231.2781,-0.068618,-0.01150389,0.0,0 STARLINK-5035,1 53897U 22119M   22333.58335648 -.01150389  00000-0 -68618-1 0  9991,2 53897  53.2170 293.6717 0001239  97.2981 231.2781 15.13684799  1309,6903.111,95.132,525.832,524.121,0.0
53897.0,STARLINK-5035,PAYLOAD,2022-11-29 22:00:00,15.1290587,0.0001224,53.2166,292.1643,87.2973,258.1157,-0.0730519999999999,-0.01194253,0.0,0 STARLINK-5035,1 53897U 22119M   22333.91667824 -.01194253  00000-0 -73052-1 0  9998,2 53897  53.2166 292.1643 0001224  87.2973 258.1157 15.12905870  1300,6905.48,95.181,528.191,526.5,0.0
53897.0,STARLINK-5035,PAYLOAD,2022-11-30 14:00:01,15.11242785,0.0001206,53.2175,289.1573,75.8598,300.5386,-0.073377,-0.01148749,0.0,0 STARLINK-5035,1 53897U 22119M   22334.58335648 -.01148749  00000-0 -73377-1 0  9997,2 53897  53.2175 289.1573 0001206  75.8598 300.5386 15.11242785 10847,6910.545999999999,95.286,533.244,531.577,0.0
53897.0,STARLINK-5035,PAYLOAD,2022-11-30 22:00:00,15.10428814,0.0001204,53.2177,287.6561,75.0442,315.2763,-0.075005,-0.01147987,0.0,0 STARLINK-5035,1 53897U 22119M   22334.91667824 -.01147987  00000-0 -75005-1 0  9991,2 53897  53.2177 287.6561 0001204  75.0442 315.2763 15.10428814  1308,6913.028,95.337,535.726,534.061,0.0
53897.0,STARLINK-5035,PAYLOAD,2022-12-01 14:00:01,15.08853151,0.0001281999999999,53.2175,284.6599,108.7027,306.7252,-0.0018016,-0.00028856,0.0,0 STARLINK-5035,1 53897U 22119M   22335.58334491 -.00028856  00000-0 -18016-2 0  9998,2 53897  53.2175 284.6599 0001282 108.7027 306.7252 15.08853151  1304,6917.84,95.437,540.592,538.818,0.0
53897.0,STARLINK-5035,PAYLOAD,2022-12-01 20:00:01,15.08872644,0.0001612,53.2138,283.535,103.6916,230.5048,0.00071548,0.00011127,0.0,0 STARLINK-5035,1 53897U 22119M   22335.83335648  .00011127  00000-0  71548-3 0  9992,2 53897  53.2138 283.5350 0001612 103.6916 230.5048 15.08872644 11030,6917.781,95.435,540.761,538.53,0.0
53897.0,STARLINK-5035,PAYLOAD,2022-12-01 22:00:00,15.08898163,0.000161,53.2136,283.1613,102.201,324.8348,-0.0027718,-0.00044201,0.0,0 STARLINK-5035,1 53897U 22119M   22335.91667824 -.00044201  00000-0 -27718-2 0  9995,2 53897  53.2136 283.1613 0001610 102.2010 324.8348 15.08898163  1307,6917.703,95.434,540.681,538.4540000000002,0.0
53897.0,STARLINK-5035,PAYLOAD,2022-12-02 06:00:00,15.08836648,0.0001372,53.2176,281.6686,87.5745,351.0437,-6.3421000000000015e-06,-3.89e-06,0.0,0 STARLINK-5035,1 53897U 22119M   22336.25001157 -.00000389  00000-0 -63421-5 0  9997,2 53897  53.2176 281.6686 0001372  87.5745 351.0437 15.08836648 11097,6917.891,95.438,540.705,538.807,0.0
